{
  "type": "FeatureCollection",
  "features": [
    {
      "type": "Feature",
      "properties": {
        "norad_id": 32113,
        "name": "FENGYUN 1C DEB",
        "group": "fengyun-1c-debris",
        "lat": -75.9474056676971,
        "lon": 172.11124240785878,
        "alt_km": 831.440929165974,
        "timestamp": "2025-12-22T23:36:20.999044+00:00",
        "meta_object_name": "FENGYUN 1C DEB",
        "meta_object_id": "1999-025CRF",
        "meta_epoch": "2025-12-14T19:47:44.837664",
        "meta_mean_motion": 13.94564965,
        "meta_eccentricity": 0.02380847,
        "meta_inclination": 99.0277,
        "meta_ra_of_asc_node": 23.5568,
        "meta_arg_of_pericenter": 220.9453,
        "meta_mean_anomaly": 137.3616,
        "meta_ephemeris_type": 0,
        "meta_classification_type": "U",
        "meta_norad_cat_id": 32113,
        "meta_element_set_no": 999,
        "meta_rev_at_epoch": 62915,
        "meta_bstar": 0.0009179447,
        "meta_mean_motion_dot": 1.508e-05,
        "meta_mean_motion_ddot": 0,
        "tle_line1": "1 32113U 99025CRF 25348.82482451  .00001508  00000+0  91794-3 0  9997",
        "tle_line2": "2 32113  99.0277  23.5568 0238084 220.9453 137.3616 13.94564965629157"
      },
      "geometry": {
        "type": "Point",
        "coordinates": [
          172.11124240785878,
          -75.9474056676971
        ]
      }
    },
    {
      "type": "Feature",
      "properties": {
        "norad_id": 32114,
        "name": "FENGYUN 1C DEB",
        "group": "fengyun-1c-debris",
        "lat": -1.3732729028340058,
        "lon": -63.87213386561146,
        "alt_km": 661.454576220648,
        "timestamp": "2025-12-22T23:36:20.999057+00:00",
        "meta_object_name": "FENGYUN 1C DEB",
        "meta_object_id": "1999-025CRG",
        "meta_epoch": "2025-12-06T13:19:21.641376",
        "meta_mean_motion": 14.76489439,
        "meta_eccentricity": 0.00447682,
        "meta_inclination": 99.9287,
        "meta_ra_of_asc_node": 96.1919,
        "meta_arg_of_pericenter": 3.5911,
        "meta_mean_anomaly": 356.5605,
        "meta_ephemeris_type": 0,
        "meta_classification_type": "U",
        "meta_norad_cat_id": 32114,
        "meta_element_set_no": 999,
        "meta_rev_at_epoch": 65638,
        "meta_bstar": 0.0040574802,
        "meta_mean_motion_dot": 0.0002877,
        "meta_mean_motion_ddot": 0,
        "tle_line1": "1 32114U 99025CRG 25340.55511159  .00028770  00000+0  40575-2 0  9998",
        "tle_line2": "2 32114  99.9287  96.1919 0044768   3.5911 356.5605 14.76489439656383"
      },
      "geometry": {
        "type": "Point",
        "coordinates": [
          -63.87213386561146,
          -1.3732729028340058
        ]
      }
    },
    {
      "type": "Feature",
      "properties": {
        "norad_id": 32117,
        "name": "FENGYUN 1C DEB",
        "group": "fengyun-1c-debris",
        "lat": -22.337019958510254,
        "lon": -141.4589956101832,
        "alt_km": 832.3097641156628,
        "timestamp": "2025-12-22T23:36:20.999067+00:00",
        "meta_object_name": "FENGYUN 1C DEB",
        "meta_object_id": "1999-025CRK",
        "meta_epoch": "2025-12-22T09:10:09.164064",
        "meta_mean_motion": 14.23981803,
        "meta_eccentricity": 0.00278217,
        "meta_inclination": 98.6161,
        "meta_ra_of_asc_node": 41.5233,
        "meta_arg_of_pericenter": 65.2411,
        "meta_mean_anomaly": 295.1659,
        "meta_ephemeris_type": 0,
        "meta_classification_type": "U",
        "meta_norad_cat_id": 32117,
        "meta_element_set_no": 999,
        "meta_rev_at_epoch": 94934,
        "meta_bstar": 0.00096836354,
        "meta_mean_motion_dot": 2.189e-05,
        "meta_mean_motion_ddot": 0,
        "tle_line1": "1 32117U 99025CRK 25356.38205051  .00002189  00000+0  96836-3 0  9998",
        "tle_line2": "2 32117  98.6161  41.5233 0027821  65.2411 295.1659 14.23981803949349"
      },
      "geometry": {
        "type": "Point",
        "coordinates": [
          -141.4589956101832,
          -22.337019958510254
        ]
      }
    },
    {
      "type": "Feature",
      "properties": {
        "norad_id": 32119,
        "name": "FENGYUN 1C DEB",
        "group": "fengyun-1c-debris",
        "lat": 10.215107209525868,
        "lon": 42.16796983389315,
        "alt_km": 936.1762202382852,
        "timestamp": "2025-12-22T23:36:20.999077+00:00",
        "meta_object_name": "FENGYUN 1C DEB",
        "meta_object_id": "1999-025CRM",
        "meta_epoch": "2025-12-21T09:08:50.463168",
        "meta_mean_motion": 14.02839478,
        "meta_eccentricity": 0.00860891,
        "meta_inclination": 99.8866,
        "meta_ra_of_asc_node": 218.6288,
        "meta_arg_of_pericenter": 29.2524,
        "meta_mean_anomaly": 331.342,
        "meta_ephemeris_type": 0,
        "meta_classification_type": "U",
        "meta_norad_cat_id": 32119,
        "meta_element_set_no": 999,
        "meta_rev_at_epoch": 93849,
        "meta_bstar": 0.00056371909,
        "meta_mean_motion_dot": 8.5e-06,
        "meta_mean_motion_ddot": 0,
        "tle_line1": "1 32119U 99025CRM 25355.38113962  .00000850  00000+0  56372-3 0  9992",
        "tle_line2": "2 32119  99.8866 218.6288 0086089  29.2524 331.3420 14.02839478938499"
      },
      "geometry": {
        "type": "Point",
        "coordinates": [
          42.16796983389315,
          10.215107209525868
        ]
      }
    },
    {
      "type": "Feature",
      "properties": {
        "norad_id": 32123,
        "name": "FENGYUN 1C DEB",
        "group": "fengyun-1c-debris",
        "lat": 76.91241055614626,
        "lon": 122.99695615061788,
        "alt_km": 793.7638997466111,
        "timestamp": "2025-12-22T23:36:20.999089+00:00",
        "meta_object_name": "FENGYUN 1C DEB",
        "meta_object_id": "1999-025CRR",
        "meta_epoch": "2025-12-21T17:43:08.778720",
        "meta_mean_motion": 14.61489863,
        "meta_eccentricity": 0.01594785,
        "meta_inclination": 98.9414,
        "meta_ra_of_asc_node": 164.2783,
        "meta_arg_of_pericenter": 265.4991,
        "meta_mean_anomaly": 106.8181,
        "meta_ephemeris_type": 0,
        "meta_classification_type": "U",
        "meta_norad_cat_id": 32123,
        "meta_element_set_no": 999,
        "meta_rev_at_epoch": 71506,
        "meta_bstar": 0.00024967622,
        "meta_mean_motion_dot": 1.416e-05,
        "meta_mean_motion_ddot": 0,
        "tle_line1": "1 32123U 99025CRR 25355.73829605  .00001416  00000+0  24968-3 0  9999",
        "tle_line2": "2 32123  98.9414 164.2783 0159478 265.4991 106.8181 14.61489863715063"
      },
      "geometry": {
        "type": "Point",
        "coordinates": [
          122.99695615061788,
          76.91241055614626
        ]
      }
    },
    {
      "type": "Feature",
      "properties": {
        "norad_id": 32125,
        "name": "FENGYUN 1C DEB",
        "group": "fengyun-1c-debris",
        "lat": 0.10441661393373229,
        "lon": 158.47329608852542,
        "alt_km": 706.5632298764649,
        "timestamp": "2025-12-22T23:36:20.999099+00:00",
        "meta_object_name": "FENGYUN 1C DEB",
        "meta_object_id": "1999-025CRT",
        "meta_epoch": "2025-12-14T04:03:21.187008",
        "meta_mean_motion": 14.69917548,
        "meta_eccentricity": 0.0174033,
        "meta_inclination": 99.062,
        "meta_ra_of_asc_node": 328.6692,
        "meta_arg_of_pericenter": 318.7989,
        "meta_mean_anomaly": 40.0184,
        "meta_ephemeris_type": 0,
        "meta_classification_type": "U",
        "meta_norad_cat_id": 32125,
        "meta_element_set_no": 999,
        "meta_rev_at_epoch": 70544,
        "meta_bstar": 0.002785531,
        "meta_mean_motion_dot": 0.00021057,
        "meta_mean_motion_ddot": 0,
        "tle_line1": "1 32125U 99025CRT 25348.16899522  .00021057  00000+0  27855-2 0  9995",
        "tle_line2": "2 32125  99.0620 328.6692 0174033 318.7989  40.0184 14.69917548705441"
      },
      "geometry": {
        "type": "Point",
        "coordinates": [
          158.47329608852542,
          0.10441661393373229
        ]
      }
    },
    {
      "type": "Feature",
      "properties": {
        "norad_id": 32126,
        "name": "FENGYUN 1C DEB",
        "group": "fengyun-1c-debris",
        "lat": 77.5189409055834,
        "lon": 98.75840744727948,
        "alt_km": 1172.5532323673215,
        "timestamp": "2025-12-22T23:36:20.999109+00:00",
        "meta_object_name": "FENGYUN 1C DEB",
        "meta_object_id": "1999-025CRU",
        "meta_epoch": "2025-12-14T22:11:18.681792",
        "meta_mean_motion": 13.56802944,
        "meta_eccentricity": 0.02807648,
        "meta_inclination": 99.1097,
        "meta_ra_of_asc_node": 224.8335,
        "meta_arg_of_pericenter": 249.9124,
        "meta_mean_anomaly": 107.16,
        "meta_ephemeris_type": 0,
        "meta_classification_type": "U",
        "meta_norad_cat_id": 32126,
        "meta_element_set_no": 999,
        "meta_rev_at_epoch": 61744,
        "meta_bstar": 0.001056147,
        "meta_mean_motion_dot": 9.24e-06,
        "meta_mean_motion_ddot": 0,
        "tle_line1": "1 32126U 99025CRU 25348.92452178  .00000924  00000+0  10561-2 0  9998",
        "tle_line2": "2 32126  99.1097 224.8335 0280764 249.9124 107.1600 13.56802944617445"
      },
      "geometry": {
        "type": "Point",
        "coordinates": [
          98.75840744727948,
          77.5189409055834
        ]
      }
    }
  ]
}